{
    "type": "FeatureCollection",
    "name": "state_centroids",
    "crs": {
        "type": "name",
        "properties": {
            "name": "urn:ogc:def:crs:OGC:1.3:CRS84"
        }
    },
    "features": [
        {
            "type": "Feature",
            "properties": {
                "geoid": "34"
            },
            "geometry": {
                "type": "Point",
                "coordinates": [
                    -74.812710282585712,
                    39.891438192524909
                ]
            }
        },
        {
            "type": "Feature",
            "properties": {
                "geoid": "42"
            },
            "geometry": {
                "type": "Point",
                "coordinates": [
                    -75.413296670912743,
                    40.12601915834248
                ]
            }
        }
    ]
}